NUSAT-1 (FRESCO)        
1 41557U 16033B   22320.77582220  .00021842  00000+0  55960-3 0  9991
2 41557  97.3905  59.1590 0009942 186.9555 293.3747 15.39347731360770
BEESAT-4                
1 41619U 16040W   22320.64281119  .00016990  00000+0  48266-3 0  9996
2 41619  97.1969   7.4814 0006469 294.5603  65.4967 15.36225347344042
CAS-2T & KS-1Q          
1 41847U 16066G   22320.44213678  .00001012  00000+0  15935-3 0  9996
2 41847  98.5338  24.8383 0363706 115.0438 248.8969 14.38903872316200
NAYIF-1 (EO-88)         
1 42017U 17008BX  22320.44450448  .00021499  00000+0  52566-3 0  9993
2 42017  97.2501  24.7295 0005221  69.7039 290.4768 15.40811616320423
ZHUHAI-1 02 (CAS-4B)    
1 42759U 17034B   22320.80784334  .00006434  00000+0  36740-3 0  9997
2 42759  43.0174 212.2377 0009375 180.4198 291.1782 15.13260922299424
ZHUHAI-1 01 (CAS-4A)    
1 42761U 17034D   22320.82132307  .00006406  00000+0  36492-3 0  9992
2 42761  43.0165 210.8418 0009884 183.1336 214.5346 15.13352034299438
MAX VALIER SAT          
1 42778U 17036P   22320.36853294  .00010012  00000+0  34769-3 0  9999
2 42778  97.1879 356.3481 0011276 137.7270 222.4842 15.29892541300109
RADFXSAT (FOX-1B)       
1 43017U 17073E   22320.22790138  .00004415  00000+0  32616-3 0  9998
2 43017  97.6539 208.1490 0245974  50.5549 311.7151 14.82589887269599
FOX-1D (AO-92)          
1 43137U 18004AC  22320.72787876  .00011934  00000+0  37727-3 0  9998
2 43137  97.3552  34.7029 0007382 170.7858 189.3521 15.32921173269631
DIWATA-2B               
1 43678U 18084H   22320.85868584  .00001024  00000+0  10552-3 0  9992
2 43678  97.9926  96.1408 0010466 136.7841 223.4213 14.92484577220582
ES'HAIL 2               
1 43700U 18090A   22320.25194559  .00000157  00000+0  00000+0 0  9992
2 43700   0.0130 278.0773 0001401 341.3879 272.3887  1.00273523 14550
FOX-1CLIFF (AO-95)      
1 43770U 18099N   22320.41054010  .00002629  00000+0  23121-3 0  9992
2 43770  97.6048  22.7424 0015286 121.9855 238.2855 14.97285555215744
ITASAT 1                
1 43786U 18099AE  22320.46060043  .00003001  00000+0  26296-3 0  9998
2 43786  97.6065  23.7845 0016246 116.4038 243.8854 14.97310880215793
JY1SAT (JO-97)          
1 43803U 18099AX  22320.42022427  .00002177  00000+0  18876-3 0  9996
2 43803  97.6036  23.5594 0015585 114.1190 246.1664 14.98006131215819
UWE-4                   
1 43880U 18111E   22320.50832200  .00002533  00000+0  21277-3 0  9998
2 43880  97.6582 224.1399 0010990 158.9302 201.2376 14.99165604212471
NEXUS (FO-99)           
1 43937U 19003F   22320.57044732  .00015096  00000+0  44338-3 0  9995
2 43937  97.1160 348.2604 0017373 334.8923  25.1474 15.35070812213272
PSAT2 (NO-104)          
1 44354U 19036R   22319.35267787  .00095125 -44322-5  51737-3 0  9990
2 44354  28.5199 197.7520 0154832 256.2915 102.0411 15.63083339188108
JAISAT-1                
1 44419U 19038F   22320.39538319  .00010027  00000+0  46362-3 0  9996
2 44419  97.6550 292.1547 0016852 333.6328  26.4047 15.20241856186110
DUCHIFAT-3              
1 44854U 19089C   22320.27281792  .00005969  00000+0  44838-3 0  9997
2 44854  36.9639 279.6111 0007882   5.6128 103.3999 15.02327805160764
CAS-6 (TIANQIN 1)       
1 44881U 19093C   22320.78256715  .00000854  00000+0  11426-3 0  9990
2 44881  97.8823  37.7317 0016063  53.7851 306.4834 14.81933234157332
RS-44 & BREEZE-KM R/B   
1 44909U 19096E   22320.48951554  .00000024  00000+0  56517-4 0  9994
2 44909  82.5176 129.2858 0216800 324.4741  34.2084 12.79716587134950
ORBITAL FACTORY 2 (OF-2)
1 45113U 19071C   22320.56398139  .00045106  00000+0  62812-3 0  9992
2 45113  51.6354  26.1713 0011195   9.1124 351.0069 15.56414277156967
HUSKYSAT-1 (HO-107)     
1 45119U 19071J   22320.39482086  .00037544  00000+0  57601-3 0  9991
2 45119  51.6362  28.7564 0010776   5.2847 354.8256 15.53861921156909
BY70-2                  
1 45857U 20042B   22320.81001233  .00010401  00000+0  13125-2 0  9993
2 45857  97.9454  36.3183 0009064 346.7030  13.3919 14.82090019128006
SALSAT                  
1 46495U 20068K   22320.56810879  .00002455  00000+0  17549-3 0  9991
2 46495  97.7457 262.0851 0018026 118.3260 241.9787 15.05309340117064
BY70-3                  
1 46839U 20079N   22320.86076817  .00043445  00000+0  74428-3 0  9997
2 46839  97.1808  31.5750 0005506 135.2615 336.7902 15.51086556113787
RADFXSAT-2 (AO-109)     
1 47311U 21002C   22320.56105771  .00009078  00000+0  33004-3 0  9998
2 47311  60.6829 148.5864 0037451  70.5206 289.9924 15.28317026101689
UVSQ-SAT                
1 47438U 21006AB  22320.10514274  .00006762  00000+0  33763-3 0  9993
2 47438  97.4186  16.0184 0012839 106.5607 253.7038 15.17737850100262
DIY-1 (ARDUIQUBE)       
1 47963U 21022AH  22320.70327794  .00022338  00000+0  10471-2 0  9996
2 47963  97.5166 220.6803 0014111 339.5013  20.5654 15.19610153 90012
XW-3 (CAS-9)            
1 50466U 21131B   22320.84663161  .00000239  00000+0  92747-4 0  9999
2 50466  98.5705  37.9486 0005313  64.7591 295.4147 14.38577196 46821
TEVEL-3                 
1 50988U 22002E   22320.83693899  .00010828  00000+0  55320-3 0  9996
2 50988  97.4643  25.3405 0007875 252.5906 218.0056 15.16833974 46492
TEVEL-8                 
1 50989U 22002F   22320.84763799  .00010796  00000+0  55243-3 0  9993
2 50989  97.4658  25.3858 0007905 249.8535 222.0912 15.16778137 46497
TEVEL-5                 
1 50998U 22002Q   22320.86408644  .00010770  00000+0  54174-3 0  9994
2 50998  97.4641  25.5565 0009325 247.9271 171.0675 15.17370384 46515
TEVEL-6                 
1 50999U 22002R   22320.86327353  .00010775  00000+0  54193-3 0  9998
2 50999  97.4640  25.5526 0009231 248.0159 171.1109 15.17376287 46516
TEVEL-1                 
1 51013U 22002AF  22320.84201492  .00010758  00000+0  55013-3 0  9992
2 51013  97.4637  25.3147 0007883 252.1230 219.5839 15.16803689 46498
TEVEL-7                 
1 51062U 22002CG  22320.84958579  .00010801  00000+0  55274-3 0  9999
2 51062  97.4654  25.3690 0007820 248.5402 222.9616 15.16775476 46498
TEVEL-4                 
1 51063U 22002CH  22320.85111654  .00010702  00000+0  54799-3 0  9997
2 51063  97.4656  25.3646 0007880 250.1965 221.3108 15.16758850 46497
TEVEL-2                 
1 51069U 22002CP  22320.83560771  .00010893  00000+0  55657-3 0  9994
2 51069  97.4639  25.3189 0007784 252.3998 201.6916 15.16829151 46490
GREENCUBE               
1 53106U 22080B   22318.57638152 -.00000003  00000+0  00000+0 0  9992
2 53106  70.1759  34.2802 0008923 231.9986 127.9868  6.42557455  7961
YUZGU 9 (RS3S)          
1 53308U 98067TT  22320.43274643  .00092847  00000+0  91434-3 0  9994
2 53308  51.6371 297.4381 0008432  81.9413 278.2538 15.65162479 18405
YUZGU 7 (RS1S)          
1 53309U 98067TU  22320.41797484  .00096494  00000+0  93111-3 0  9992
2 53309  51.6365 297.3342 0008724  86.0923 274.1070 15.65652841 18358
YUZGU 11 (RS5S)         
1 53310U 98067TV  22320.43160520  .00092259  00000+0  90780-3 0  9995
2 53310  51.6367 297.4302 0008459  85.7187 274.4775 15.65185751 18381
YUZGU 12 (RS6S)         
1 53311U 98067TW  22320.65774130  .00103636  00000+0  97711-3 0  9991
2 53311  51.6365 295.9352 0008575  80.7605 279.4360 15.66201246 18448
TSIOLKOVSKY-RYAZAN 1 (*)
1 53312U 98067TX  22320.80037830  .00092576  00000+0  89950-3 0  9994
2 53312  51.6370 295.3947 0008760  88.5823 271.6176 15.65497420 18408
TSIOLKOVSKY-RYAZAN 2 (*)
1 53313U 98067TY  22320.54262773  .00094401  00000+0  91324-3 0  9999
2 53313  51.6375 296.6731 0008292  87.5991 272.5954 15.65603088 18418
YUZGU 10 (RS4S)         
1 53321U 98067TZ  22320.74580008  .00096984  00000+0  94188-3 0  9993
2 53321  51.6368 295.7792 0008590  85.0613 275.1363 15.65490912 18447
RS29S (SXC3-2110 CYCLO*)
1 53373U 22096D   22320.83133038  .00014697  00000+0  55898-3 0  9992
2 53373  97.4270 221.6287 0002252 114.2023 320.1238 15.26872030 15171
RS32S (SXC3-212 MONITO*)
1 53374U 22096E   22320.82611047  .00014155  00000+0  53710-3 0  9993
2 53374  97.4269 221.6370 0002622 113.5908 330.9281 15.26957421 15173
RS34S (SXC3-218 KUZBAS*)
1 53375U 22096F   22320.83239847  .00012077  00000+0  46377-3 0  9991
2 53375  97.4273 221.6263 0002475 116.2519 318.3363 15.26598222 15175
RS23S (SXC3-21 UTMN)    
1 53376U 22096G   22320.82996825  .00012536  00000+0  48036-3 0  9991
2 53376  97.4268 221.6298 0002505 110.1999 323.9145 15.26660366 15176
RS28S (SXC3-214 MIET-A*)
1 53377U 22096H   22320.83079875  .00011324  00000+0  43476-3 0  9997
2 53377  97.4273 221.6347 0002616 117.0609 328.0927 15.26620937 15179
RS26S (KAI-1)           
1 53378U 22096J   22320.83156628  .00010459  00000+0  40382-3 0  9991
2 53378  97.4273 221.6274 0002791 112.6064 319.9224 15.26453128 15174
RS19S (SXC3-219 ISOI)   
1 53381U 22096M   22320.86278068  .00011650  00000+0  44022-3 0  9990
2 53381  97.4279 221.7349 0006225  92.3724 332.8651 15.27126939 15188
RS21S (CUBESX-HSE-2)    
1 53383U 22096P   22320.79844205  .00012407  00000+0  46801-3 0  9994
2 53383  97.4279 221.6785 0006574  96.1937 350.0952 15.27166554 15170
RS30S (SXC3-217 SIREN)  
1 53384U 22096Q   22320.80009645  .00010850  00000+0  41133-3 0  9991
2 53384  97.4280 221.6747 0006574  93.3327 353.8934 15.27036370 15176
RS20S (GEOSCAN-EDELVEIS)
1 53385U 22096R   22320.77470359  .00015153  00000+0  55951-3 0  9996
2 53385  97.4268 221.7058 0007023  93.3108 351.4686 15.27823934 15208
RS33S (SXC3-215 VIZARD) 
1 53386U 22096S   22320.87529036  .00017761  00000+0  64079-3 0  9993
2 53386  97.4279 221.8680 0007802  90.3852 334.0203 15.28546786 15212
